[{"OBJECT_NAME":"YAOGAN-36 03A","OBJECT_ID":"2022-160A","EPOCH":"2026-03-09T21:08:19.248576","MEAN_MOTION":15.31468155,"ECCENTRICITY":0.00027649,"INCLINATION":34.9999,"RA_OF_ASC_NODE":237.2222,"ARG_OF_PERICENTER":84.1273,"MEAN_ANOMALY":275.9759,"EPHEMERIS_TYPE":0,"CLASSIFICATION_TYPE":"U","NORAD_CAT_ID":54372,"ELEMENT_SET_NO":999,"REV_AT_EPOCH":18296,"BSTAR":0.00056596392,"MEAN_MOTION_DOT":0.00017652,"MEAN_MOTION_DDOT":0},{"OBJECT_NAME":"STARLINK-31756","OBJECT_ID":"2024-183J","EPOCH":"2026-03-09T11:21:03.667104","MEAN_MOTION":15.30187948,"ECCENTRICITY":0.0001087,"INCLINATION":53.1601,"RA_OF_ASC_NODE":143.7994,"ARG_OF_PERICENTER":100.4447,"MEAN_ANOMALY":259.6676,"EPHEMERIS_TYPE":0,"CLASSIFICATION_TYPE":"U","NORAD_CAT_ID":61517,"ELEMENT_SET_NO":999,"REV_AT_EPOCH":7961,"BSTAR":1.1884877e-5,"MEAN_MOTION_DOT":-7.0e-8,"MEAN_MOTION_DDOT":0}]
